{"type": "FeatureCollection", "crs": "WGS84 (empirical, graticule-anchored)", "features": [{"type": "Feature", "geometry": {"type": "LineString", "coordinates": [[50.37615, 10.61829], [50.14126, 10.71708], [49.99968, 10.81285]]}, "properties": {"source": "abbate_1994_faults", "kind": "fault", "confidence": "mapped", "source_scale": "1:1,500,000", "accuracy_km": "~2-4 (empirically re-validated against graticule + natural landmark; see integration report)", "source_full": "Abbate, Sagri & Sassi 1994 - Geological Map of Somalia 1:1,500,000 (UNDP/UNDTCD/SNU)", "method": "symbology-guided digitization; georeferenced via least-squares fit to printed map graticule (9 control points) with rotation correction, NOT via ORB image-coregistration (superseded, had 10-21km error)", "region": "Puntland/NE (Darror-Al Mescat-Bari)", "note": "solid bold-black fault (Abbate legend: Faults)", "length_km": 46.7}}, {"type": "Feature", "geometry": {"type": "LineString", "coordinates": [[49.99968, 10.81285], [49.98991, 10.9092]]}, "properties": {"source": "abbate_1994_faults", "kind": "fault", "confidence": "mapped", "source_scale": "1:1,500,000", "accuracy_km": "~2-4 (empirically re-validated against graticule + natural landmark; see integration report)", "source_full": "Abbate, Sagri & Sassi 1994 - Geological Map of Somalia 1:1,500,000 (UNDP/UNDTCD/SNU)", "method": "symbology-guided digitization; georeferenced via least-squares fit to printed map graticule (9 control points) with rotation correction, NOT via ORB image-coregistration (superseded, had 10-21km error)", "region": "Puntland/NE (Darror-Al Mescat-Bari)", "note": "solid bold-black fault (Abbate legend: Faults)", "length_km": 10.8}}, {"type": "Feature", "geometry": {"type": "LineString", "coordinates": [[49.94354, 10.84473], [49.84418, 10.89364]]}, "properties": {"source": "abbate_1994_faults", "kind": "fault", "confidence": "mapped", "source_scale": "1:1,500,000", "accuracy_km": "~2-4 (empirically re-validated against graticule + natural landmark; see integration report)", "source_full": "Abbate, Sagri & Sassi 1994 - Geological Map of Somalia 1:1,500,000 (UNDP/UNDTCD/SNU)", "method": "symbology-guided digitization; georeferenced via least-squares fit to printed map graticule (9 control points) with rotation correction, NOT via ORB image-coregistration (superseded, had 10-21km error)", "region": "Puntland/NE (Darror-Al Mescat-Bari)", "note": "solid bold-black fault (Abbate legend: Faults)", "length_km": 12.2}}, {"type": "Feature", "geometry": {"type": "LineString", "coordinates": [[49.8112, 10.96234], [49.70156, 10.96301], [49.67585, 10.97322]]}, "properties": {"source": "abbate_1994_faults", "kind": "fault", "confidence": "mapped", "source_scale": "1:1,500,000", "accuracy_km": "~2-4 (empirically re-validated against graticule + natural landmark; see integration report)", "source_full": "Abbate, Sagri & Sassi 1994 - Geological Map of Somalia 1:1,500,000 (UNDP/UNDTCD/SNU)", "method": "symbology-guided digitization; georeferenced via least-squares fit to printed map graticule (9 control points) with rotation correction, NOT via ORB image-coregistration (superseded, had 10-21km error)", "region": "Puntland/NE (Darror-Al Mescat-Bari)", "note": "solid bold-black fault (Abbate legend: Faults)", "length_km": 15.0}}, {"type": "Feature", "geometry": {"type": "LineString", "coordinates": [[49.65132, 10.98343], [49.36977, 11.08318]]}, "properties": {"source": "abbate_1994_faults", "kind": "fault", "confidence": "mapped", "source_scale": "1:1,500,000", "accuracy_km": "~2-4 (empirically re-validated against graticule + natural landmark; see integration report)", "source_full": "Abbate, Sagri & Sassi 1994 - Geological Map of Somalia 1:1,500,000 (UNDP/UNDTCD/SNU)", "method": "symbology-guided digitization; georeferenced via least-squares fit to printed map graticule (9 control points) with rotation correction, NOT via ORB image-coregistration (superseded, had 10-21km error)", "region": "Puntland/NE (Darror-Al Mescat-Bari)", "note": "solid bold-black fault (Abbate legend: Faults)", "length_km": 32.7}}, {"type": "Feature", "geometry": {"type": "LineString", "coordinates": [[50.01092, 10.64994], [49.4944, 10.86569]]}, "properties": {"source": "abbate_1994_faults", "kind": "fault", "confidence": "mapped", "source_scale": "1:1,500,000", "accuracy_km": "~2-4 (empirically re-validated against graticule + natural landmark; see integration report)", "source_full": "Abbate, Sagri & Sassi 1994 - Geological Map of Somalia 1:1,500,000 (UNDP/UNDTCD/SNU)", "method": "symbology-guided digitization; georeferenced via least-squares fit to printed map graticule (9 control points) with rotation correction, NOT via ORB image-coregistration (superseded, had 10-21km error)", "region": "Puntland/NE (Darror-Al Mescat-Bari)", "note": "solid bold-black fault (Abbate legend: Faults)", "length_km": 61.4}}, {"type": "Feature", "geometry": {"type": "LineString", "coordinates": [[49.40977, 10.24675], [48.98625, 10.27356]]}, "properties": {"source": "abbate_1994_faults", "kind": "fault", "confidence": "mapped", "source_scale": "1:1,500,000", "accuracy_km": "~2-4 (empirically re-validated against graticule + natural landmark; see integration report)", "source_full": "Abbate, Sagri & Sassi 1994 - Geological Map of Somalia 1:1,500,000 (UNDP/UNDTCD/SNU)", "method": "symbology-guided digitization; georeferenced via least-squares fit to printed map graticule (9 control points) with rotation correction, NOT via ORB image-coregistration (superseded, had 10-21km error)", "region": "Puntland/NE (Darror-Al Mescat-Bari)", "note": "solid bold-black fault (Abbate legend: Faults)", "length_km": 46.5}}, {"type": "Feature", "geometry": {"type": "LineString", "coordinates": [[50.10238, 11.0543], [49.74251, 11.18926]]}, "properties": {"source": "abbate_1994_faults", "kind": "fault", "confidence": "mapped", "source_scale": "1:1,500,000", "accuracy_km": "~2-4 (empirically re-validated against graticule + natural landmark; see integration report)", "source_full": "Abbate, Sagri & Sassi 1994 - Geological Map of Somalia 1:1,500,000 (UNDP/UNDTCD/SNU)", "method": "symbology-guided digitization; georeferenced via least-squares fit to printed map graticule (9 control points) with rotation correction, NOT via ORB image-coregistration (superseded, had 10-21km error)", "region": "Puntland/NE (Darror-Al Mescat-Bari)", "note": "solid bold-black fault (Abbate legend: Faults)", "length_km": 42.1}}, {"type": "Feature", "geometry": {"type": "LineString", "coordinates": [[49.70587, 10.7863], [49.35887, 10.91557]]}, "properties": {"source": "abbate_1994_faults", "kind": "fault", "confidence": "mapped", "source_scale": "1:1,500,000", "accuracy_km": "~2-4 (empirically re-validated against graticule + natural landmark; see integration report)", "source_full": "Abbate, Sagri & Sassi 1994 - Geological Map of Somalia 1:1,500,000 (UNDP/UNDTCD/SNU)", "method": "symbology-guided digitization; georeferenced via least-squares fit to printed map graticule (9 control points) with rotation correction, NOT via ORB image-coregistration (superseded, had 10-21km error)", "region": "Puntland/NE (Darror-Al Mescat-Bari)", "note": "solid bold-black fault (Abbate legend: Faults)", "length_km": 40.6}}, {"type": "Feature", "geometry": {"type": "LineString", "coordinates": [[49.5433, 11.13673], [49.37504, 11.20255]]}, "properties": {"source": "abbate_1994_faults", "kind": "fault", "confidence": "mapped", "source_scale": "1:1,500,000", "accuracy_km": "~2-4 (empirically re-validated against graticule + natural landmark; see integration report)", "source_full": "Abbate, Sagri & Sassi 1994 - Geological Map of Somalia 1:1,500,000 (UNDP/UNDTCD/SNU)", "method": "symbology-guided digitization; georeferenced via least-squares fit to printed map graticule (9 control points) with rotation correction, NOT via ORB image-coregistration (superseded, had 10-21km error)", "region": "Puntland/NE (Darror-Al Mescat-Bari)", "note": "solid bold-black fault (Abbate legend: Faults)", "length_km": 19.8}}, {"type": "Feature", "geometry": {"type": "LineString", "coordinates": [[50.29542, 10.92663], [50.15631, 10.99257], [49.96825, 11.05256]]}, "properties": {"source": "abbate_1994_faults", "kind": "fault", "confidence": "mapped", "source_scale": "1:1,500,000", "accuracy_km": "~2-4 (empirically re-validated against graticule + natural landmark; see integration report)", "source_full": "Abbate, Sagri & Sassi 1994 - Geological Map of Somalia 1:1,500,000 (UNDP/UNDTCD/SNU)", "method": "symbology-guided digitization; georeferenced via least-squares fit to printed map graticule (9 control points) with rotation correction, NOT via ORB image-coregistration (superseded, had 10-21km error)", "region": "Puntland/NE (Darror-Al Mescat-Bari)", "note": "solid bold-black fault (Abbate legend: Faults)", "length_km": 38.5}}, {"type": "Feature", "geometry": {"type": "LineString", "coordinates": [[50.42123, 10.96047], [50.15239, 11.08436]]}, "properties": {"source": "abbate_1994_faults", "kind": "fault", "confidence": "mapped", "source_scale": "1:1,500,000", "accuracy_km": "~2-4 (empirically re-validated against graticule + natural landmark; see integration report)", "source_full": "Abbate, Sagri & Sassi 1994 - Geological Map of Somalia 1:1,500,000 (UNDP/UNDTCD/SNU)", "method": "symbology-guided digitization; georeferenced via least-squares fit to printed map graticule (9 control points) with rotation correction, NOT via ORB image-coregistration (superseded, had 10-21km error)", "region": "Puntland/NE (Darror-Al Mescat-Bari)", "note": "solid bold-black fault (Abbate legend: Faults)", "length_km": 32.5}}, {"type": "Feature", "geometry": {"type": "LineString", "coordinates": [[50.71139, 10.76667], [50.45992, 10.91589]]}, "properties": {"source": "abbate_1994_faults", "kind": "fault", "confidence": "mapped", "source_scale": "1:1,500,000", "accuracy_km": "~2-4 (empirically re-validated against graticule + natural landmark; see integration report)", "source_full": "Abbate, Sagri & Sassi 1994 - Geological Map of Somalia 1:1,500,000 (UNDP/UNDTCD/SNU)", "method": "symbology-guided digitization; georeferenced via least-squares fit to printed map graticule (9 control points) with rotation correction, NOT via ORB image-coregistration (superseded, had 10-21km error)", "region": "Puntland/NE (Darror-Al Mescat-Bari)", "note": "solid bold-black fault (Abbate legend: Faults)", "length_km": 32.1}}, {"type": "Feature", "geometry": {"type": "LineString", "coordinates": [[49.91954, 11.24743], [49.7054, 11.39566]]}, "properties": {"source": "abbate_1994_faults", "kind": "fault", "confidence": "mapped", "source_scale": "1:1,500,000", "accuracy_km": "~2-4 (empirically re-validated against graticule + natural landmark; see integration report)", "source_full": "Abbate, Sagri & Sassi 1994 - Geological Map of Somalia 1:1,500,000 (UNDP/UNDTCD/SNU)", "method": "symbology-guided digitization; georeferenced via least-squares fit to printed map graticule (9 control points) with rotation correction, NOT via ORB image-coregistration (superseded, had 10-21km error)", "region": "Puntland/NE (Darror-Al Mescat-Bari)", "note": "solid bold-black fault (Abbate legend: Faults)", "length_km": 28.6}}, {"type": "Feature", "geometry": {"type": "LineString", "coordinates": [[50.43808, 10.59331], [50.21023, 10.68296]]}, "properties": {"source": "abbate_1994_faults", "kind": "fault", "confidence": "mapped", "source_scale": "1:1,500,000", "accuracy_km": "~2-4 (empirically re-validated against graticule + natural landmark; see integration report)", "source_full": "Abbate, Sagri & Sassi 1994 - Geological Map of Somalia 1:1,500,000 (UNDP/UNDTCD/SNU)", "method": "symbology-guided digitization; georeferenced via least-squares fit to printed map graticule (9 control points) with rotation correction, NOT via ORB image-coregistration (superseded, had 10-21km error)", "region": "Puntland/NE (Darror-Al Mescat-Bari)", "note": "solid bold-black fault (Abbate legend: Faults)", "length_km": 26.9}}, {"type": "Feature", "geometry": {"type": "LineString", "coordinates": [[49.8887, 10.85252], [49.64375, 10.85258]]}, "properties": {"source": "abbate_1994_faults", "kind": "fault", "confidence": "mapped", "source_scale": "1:1,500,000", "accuracy_km": "~2-4 (empirically re-validated against graticule + natural landmark; see integration report)", "source_full": "Abbate, Sagri & Sassi 1994 - Geological Map of Somalia 1:1,500,000 (UNDP/UNDTCD/SNU)", "method": "symbology-guided digitization; georeferenced via least-squares fit to printed map graticule (9 control points) with rotation correction, NOT via ORB image-coregistration (superseded, had 10-21km error)", "region": "Puntland/NE (Darror-Al Mescat-Bari)", "note": "solid bold-black fault (Abbate legend: Faults)", "length_km": 26.8}}, {"type": "Feature", "geometry": {"type": "LineString", "coordinates": [[49.70507, 11.21549], [49.5039, 11.33394]]}, "properties": {"source": "abbate_1994_faults", "kind": "fault", "confidence": "mapped", "source_scale": "1:1,500,000", "accuracy_km": "~2-4 (empirically re-validated against graticule + natural landmark; see integration report)", "source_full": "Abbate, Sagri & Sassi 1994 - Geological Map of Somalia 1:1,500,000 (UNDP/UNDTCD/SNU)", "method": "symbology-guided digitization; georeferenced via least-squares fit to printed map graticule (9 control points) with rotation correction, NOT via ORB image-coregistration (superseded, had 10-21km error)", "region": "Puntland/NE (Darror-Al Mescat-Bari)", "note": "solid bold-black fault (Abbate legend: Faults)", "length_km": 25.6}}, {"type": "Feature", "geometry": {"type": "LineString", "coordinates": [[50.58237, 11.42826], [50.36518, 11.48123]]}, "properties": {"source": "abbate_1994_faults", "kind": "fault", "confidence": "mapped", "source_scale": "1:1,500,000", "accuracy_km": "~2-4 (empirically re-validated against graticule + natural landmark; see integration report)", "source_full": "Abbate, Sagri & Sassi 1994 - Geological Map of Somalia 1:1,500,000 (UNDP/UNDTCD/SNU)", "method": "symbology-guided digitization; georeferenced via least-squares fit to printed map graticule (9 control points) with rotation correction, NOT via ORB image-coregistration (superseded, had 10-21km error)", "region": "Puntland/NE (Darror-Al Mescat-Bari)", "note": "solid bold-black fault (Abbate legend: Faults)", "length_km": 24.4}}, {"type": "Feature", "geometry": {"type": "LineString", "coordinates": [[49.97579, 11.18801], [49.75636, 11.22031]]}, "properties": {"source": "abbate_1994_faults", "kind": "fault", "confidence": "mapped", "source_scale": "1:1,500,000", "accuracy_km": "~2-4 (empirically re-validated against graticule + natural landmark; see integration report)", "source_full": "Abbate, Sagri & Sassi 1994 - Geological Map of Somalia 1:1,500,000 (UNDP/UNDTCD/SNU)", "method": "symbology-guided digitization; georeferenced via least-squares fit to printed map graticule (9 control points) with rotation correction, NOT via ORB image-coregistration (superseded, had 10-21km error)", "region": "Puntland/NE (Darror-Al Mescat-Bari)", "note": "solid bold-black fault (Abbate legend: Faults)", "length_km": 24.2}}, {"type": "Feature", "geometry": {"type": "LineString", "coordinates": [[50.51886, 11.54274], [50.31439, 11.61987]]}, "properties": {"source": "abbate_1994_faults", "kind": "fault", "confidence": "mapped", "source_scale": "1:1,500,000", "accuracy_km": "~2-4 (empirically re-validated against graticule + natural landmark; see integration report)", "source_full": "Abbate, Sagri & Sassi 1994 - Geological Map of Somalia 1:1,500,000 (UNDP/UNDTCD/SNU)", "method": "symbology-guided digitization; georeferenced via least-squares fit to printed map graticule (9 control points) with rotation correction, NOT via ORB image-coregistration (superseded, had 10-21km error)", "region": "Puntland/NE (Darror-Al Mescat-Bari)", "note": "solid bold-black fault (Abbate legend: Faults)", "length_km": 23.9}}, {"type": "Feature", "geometry": {"type": "LineString", "coordinates": [[49.61241, 10.8203], [49.41847, 10.88944]]}, "properties": {"source": "abbate_1994_faults", "kind": "fault", "confidence": "mapped", "source_scale": "1:1,500,000", "accuracy_km": "~2-4 (empirically re-validated against graticule + natural landmark; see integration report)", "source_full": "Abbate, Sagri & Sassi 1994 - Geological Map of Somalia 1:1,500,000 (UNDP/UNDTCD/SNU)", "method": "symbology-guided digitization; georeferenced via least-squares fit to printed map graticule (9 control points) with rotation correction, NOT via ORB image-coregistration (superseded, had 10-21km error)", "region": "Puntland/NE (Darror-Al Mescat-Bari)", "note": "solid bold-black fault (Abbate legend: Faults)", "length_km": 22.6}}, {"type": "Feature", "geometry": {"type": "LineString", "coordinates": [[50.21854, 10.90563], [50.01559, 10.90473]]}, "properties": {"source": "abbate_1994_faults", "kind": "fault", "confidence": "mapped", "source_scale": "1:1,500,000", "accuracy_km": "~2-4 (empirically re-validated against graticule + natural landmark; see integration report)", "source_full": "Abbate, Sagri & Sassi 1994 - Geological Map of Somalia 1:1,500,000 (UNDP/UNDTCD/SNU)", "method": "symbology-guided digitization; georeferenced via least-squares fit to printed map graticule (9 control points) with rotation correction, NOT via ORB image-coregistration (superseded, had 10-21km error)", "region": "Puntland/NE (Darror-Al Mescat-Bari)", "note": "solid bold-black fault (Abbate legend: Faults)", "length_km": 22.2}}, {"type": "Feature", "geometry": {"type": "LineString", "coordinates": [[50.3296, 11.35599], [50.12893, 11.36886]]}, "properties": {"source": "abbate_1994_faults", "kind": "fault", "confidence": "mapped", "source_scale": "1:1,500,000", "accuracy_km": "~2-4 (empirically re-validated against graticule + natural landmark; see integration report)", "source_full": "Abbate, Sagri & Sassi 1994 - Geological Map of Somalia 1:1,500,000 (UNDP/UNDTCD/SNU)", "method": "symbology-guided digitization; georeferenced via least-squares fit to printed map graticule (9 control points) with rotation correction, NOT via ORB image-coregistration (superseded, had 10-21km error)", "region": "Puntland/NE (Darror-Al Mescat-Bari)", "note": "solid bold-black fault (Abbate legend: Faults)", "length_km": 21.9}}, {"type": "Feature", "geometry": {"type": "LineString", "coordinates": [[49.43783, 10.99281], [49.26822, 11.0965]]}, "properties": {"source": "abbate_1994_faults", "kind": "fault", "confidence": "mapped", "source_scale": "1:1,500,000", "accuracy_km": "~2-4 (empirically re-validated against graticule + natural landmark; see integration report)", "source_full": "Abbate, Sagri & Sassi 1994 - Geological Map of Somalia 1:1,500,000 (UNDP/UNDTCD/SNU)", "method": "symbology-guided digitization; georeferenced via least-squares fit to printed map graticule (9 control points) with rotation correction, NOT via ORB image-coregistration (superseded, had 10-21km error)", "region": "Puntland/NE (Darror-Al Mescat-Bari)", "note": "solid bold-black fault (Abbate legend: Faults)", "length_km": 21.8}}, {"type": "Feature", "geometry": {"type": "LineString", "coordinates": [[49.7268, 11.05608], [49.92391, 11.0581]]}, "properties": {"source": "abbate_1994_faults", "kind": "fault", "confidence": "mapped", "source_scale": "1:1,500,000", "accuracy_km": "~2-4 (empirically re-validated against graticule + natural landmark; see integration report)", "source_full": "Abbate, Sagri & Sassi 1994 - Geological Map of Somalia 1:1,500,000 (UNDP/UNDTCD/SNU)", "method": "symbology-guided digitization; georeferenced via least-squares fit to printed map graticule (9 control points) with rotation correction, NOT via ORB image-coregistration (superseded, had 10-21km error)", "region": "Puntland/NE (Darror-Al Mescat-Bari)", "note": "solid bold-black fault (Abbate legend: Faults)", "length_km": 21.5}}, {"type": "Feature", "geometry": {"type": "LineString", "coordinates": [[49.19508, 11.02272], [49.01627, 11.10111]]}, "properties": {"source": "abbate_1994_faults", "kind": "fault", "confidence": "mapped", "source_scale": "1:1,500,000", "accuracy_km": "~2-4 (empirically re-validated against graticule + natural landmark; see integration report)", "source_full": "Abbate, Sagri & Sassi 1994 - Geological Map of Somalia 1:1,500,000 (UNDP/UNDTCD/SNU)", "method": "symbology-guided digitization; georeferenced via least-squares fit to printed map graticule (9 control points) with rotation correction, NOT via ORB image-coregistration (superseded, had 10-21km error)", "region": "Puntland/NE (Darror-Al Mescat-Bari)", "note": "solid bold-black fault (Abbate legend: Faults)", "length_km": 21.4}}, {"type": "Feature", "geometry": {"type": "LineString", "coordinates": [[49.05642, 10.73979], [48.89149, 10.8435]]}, "properties": {"source": "abbate_1994_faults", "kind": "fault", "confidence": "mapped", "source_scale": "1:1,500,000", "accuracy_km": "~2-4 (empirically re-validated against graticule + natural landmark; see integration report)", "source_full": "Abbate, Sagri & Sassi 1994 - Geological Map of Somalia 1:1,500,000 (UNDP/UNDTCD/SNU)", "method": "symbology-guided digitization; georeferenced via least-squares fit to printed map graticule (9 control points) with rotation correction, NOT via ORB image-coregistration (superseded, had 10-21km error)", "region": "Puntland/NE (Darror-Al Mescat-Bari)", "note": "solid bold-black fault (Abbate legend: Faults)", "length_km": 21.4}}, {"type": "Feature", "geometry": {"type": "LineString", "coordinates": [[49.10857, 10.81347], [48.93328, 10.88499]]}, "properties": {"source": "abbate_1994_faults", "kind": "fault", "confidence": "mapped", "source_scale": "1:1,500,000", "accuracy_km": "~2-4 (empirically re-validated against graticule + natural landmark; see integration report)", "source_full": "Abbate, Sagri & Sassi 1994 - Geological Map of Somalia 1:1,500,000 (UNDP/UNDTCD/SNU)", "method": "symbology-guided digitization; georeferenced via least-squares fit to printed map graticule (9 control points) with rotation correction, NOT via ORB image-coregistration (superseded, had 10-21km error)", "region": "Puntland/NE (Darror-Al Mescat-Bari)", "note": "solid bold-black fault (Abbate legend: Faults)", "length_km": 20.8}}, {"type": "Feature", "geometry": {"type": "LineString", "coordinates": [[50.81001, 10.62366], [50.64748, 10.7113]]}, "properties": {"source": "abbate_1994_faults", "kind": "fault", "confidence": "mapped", "source_scale": "1:1,500,000", "accuracy_km": "~2-4 (empirically re-validated against graticule + natural landmark; see integration report)", "source_full": "Abbate, Sagri & Sassi 1994 - Geological Map of Somalia 1:1,500,000 (UNDP/UNDTCD/SNU)", "method": "symbology-guided digitization; georeferenced via least-squares fit to printed map graticule (9 control points) with rotation correction, NOT via ORB image-coregistration (superseded, had 10-21km error)", "region": "Puntland/NE (Darror-Al Mescat-Bari)", "note": "solid bold-black fault (Abbate legend: Faults)", "length_km": 20.3}}, {"type": "Feature", "geometry": {"type": "LineString", "coordinates": [[49.74598, 10.94255], [49.57421, 11.01064]]}, "properties": {"source": "abbate_1994_faults", "kind": "fault", "confidence": "mapped", "source_scale": "1:1,500,000", "accuracy_km": "~2-4 (empirically re-validated against graticule + natural landmark; see integration report)", "source_full": "Abbate, Sagri & Sassi 1994 - Geological Map of Somalia 1:1,500,000 (UNDP/UNDTCD/SNU)", "method": "symbology-guided digitization; georeferenced via least-squares fit to printed map graticule (9 control points) with rotation correction, NOT via ORB image-coregistration (superseded, had 10-21km error)", "region": "Puntland/NE (Darror-Al Mescat-Bari)", "note": "solid bold-black fault (Abbate legend: Faults)", "length_km": 20.2}}, {"type": "Feature", "geometry": {"type": "LineString", "coordinates": [[50.61586, 11.50071], [50.45461, 11.56655]]}, "properties": {"source": "abbate_1994_faults", "kind": "fault", "confidence": "mapped", "source_scale": "1:1,500,000", "accuracy_km": "~2-4 (empirically re-validated against graticule + natural landmark; see integration report)", "source_full": "Abbate, Sagri & Sassi 1994 - Geological Map of Somalia 1:1,500,000 (UNDP/UNDTCD/SNU)", "method": "symbology-guided digitization; georeferenced via least-squares fit to printed map graticule (9 control points) with rotation correction, NOT via ORB image-coregistration (superseded, had 10-21km error)", "region": "Puntland/NE (Darror-Al Mescat-Bari)", "note": "solid bold-black fault (Abbate legend: Faults)", "length_km": 19.1}}, {"type": "Feature", "geometry": {"type": "LineString", "coordinates": [[49.46053, 10.87471], [49.30274, 10.94631]]}, "properties": {"source": "abbate_1994_faults", "kind": "fault", "confidence": "mapped", "source_scale": "1:1,500,000", "accuracy_km": "~2-4 (empirically re-validated against graticule + natural landmark; see integration report)", "source_full": "Abbate, Sagri & Sassi 1994 - Geological Map of Somalia 1:1,500,000 (UNDP/UNDTCD/SNU)", "method": "symbology-guided digitization; georeferenced via least-squares fit to printed map graticule (9 control points) with rotation correction, NOT via ORB image-coregistration (superseded, had 10-21km error)", "region": "Puntland/NE (Darror-Al Mescat-Bari)", "note": "solid bold-black fault (Abbate legend: Faults)", "length_km": 19.0}}, {"type": "Feature", "geometry": {"type": "LineString", "coordinates": [[50.74618, 11.57129], [50.59308, 11.63718]]}, "properties": {"source": "abbate_1994_faults", "kind": "fault", "confidence": "mapped", "source_scale": "1:1,500,000", "accuracy_km": "~2-4 (empirically re-validated against graticule + natural landmark; see integration report)", "source_full": "Abbate, Sagri & Sassi 1994 - Geological Map of Somalia 1:1,500,000 (UNDP/UNDTCD/SNU)", "method": "symbology-guided digitization; georeferenced via least-squares fit to printed map graticule (9 control points) with rotation correction, NOT via ORB image-coregistration (superseded, had 10-21km error)", "region": "Puntland/NE (Darror-Al Mescat-Bari)", "note": "solid bold-black fault (Abbate legend: Faults)", "length_km": 18.2}}, {"type": "Feature", "geometry": {"type": "LineString", "coordinates": [[49.14284, 10.96856], [48.97714, 10.98503]]}, "properties": {"source": "abbate_1994_faults", "kind": "fault", "confidence": "mapped", "source_scale": "1:1,500,000", "accuracy_km": "~2-4 (empirically re-validated against graticule + natural landmark; see integration report)", "source_full": "Abbate, Sagri & Sassi 1994 - Geological Map of Somalia 1:1,500,000 (UNDP/UNDTCD/SNU)", "method": "symbology-guided digitization; georeferenced via least-squares fit to printed map graticule (9 control points) with rotation correction, NOT via ORB image-coregistration (superseded, had 10-21km error)", "region": "Puntland/NE (Darror-Al Mescat-Bari)", "note": "solid bold-black fault (Abbate legend: Faults)", "length_km": 18.2}}, {"type": "Feature", "geometry": {"type": "LineString", "coordinates": [[50.57592, 11.5625], [50.4194, 11.6123]]}, "properties": {"source": "abbate_1994_faults", "kind": "fault", "confidence": "mapped", "source_scale": "1:1,500,000", "accuracy_km": "~2-4 (empirically re-validated against graticule + natural landmark; see integration report)", "source_full": "Abbate, Sagri & Sassi 1994 - Geological Map of Somalia 1:1,500,000 (UNDP/UNDTCD/SNU)", "method": "symbology-guided digitization; georeferenced via least-squares fit to printed map graticule (9 control points) with rotation correction, NOT via ORB image-coregistration (superseded, had 10-21km error)", "region": "Puntland/NE (Darror-Al Mescat-Bari)", "note": "solid bold-black fault (Abbate legend: Faults)", "length_km": 17.9}}, {"type": "Feature", "geometry": {"type": "LineString", "coordinates": [[50.2763, 10.518], [50.12441, 10.5747]]}, "properties": {"source": "abbate_1994_faults", "kind": "fault", "confidence": "mapped", "source_scale": "1:1,500,000", "accuracy_km": "~2-4 (empirically re-validated against graticule + natural landmark; see integration report)", "source_full": "Abbate, Sagri & Sassi 1994 - Geological Map of Somalia 1:1,500,000 (UNDP/UNDTCD/SNU)", "method": "symbology-guided digitization; georeferenced via least-squares fit to printed map graticule (9 control points) with rotation correction, NOT via ORB image-coregistration (superseded, had 10-21km error)", "region": "Puntland/NE (Darror-Al Mescat-Bari)", "note": "solid bold-black fault (Abbate legend: Faults)", "length_km": 17.8}}, {"type": "Feature", "geometry": {"type": "LineString", "coordinates": [[49.01892, 10.2714], [49.52647, 10.23235], [49.59634, 10.25791], [49.78889, 10.23466], [49.80633, 10.24852], [50.08651, 10.19353], [50.22632, 10.22743], [50.41891, 10.19731], [50.54112, 10.25293]]}, "properties": {"source": "abbate_1994_faults", "kind": "fault", "confidence": "inferred_concealed", "source_scale": "1:1,500,000", "accuracy_km": "~2-4 (empirically re-validated against graticule + natural landmark; see integration report)", "source_full": "Abbate, Sagri & Sassi 1994 - Geological Map of Somalia 1:1,500,000 (UNDP/UNDTCD/SNU)", "method": "symbology-guided digitization; georeferenced via least-squares fit to printed map graticule (9 control points) with rotation correction, NOT via ORB image-coregistration (superseded, had 10-21km error)", "region": "Darror/Iskushuban", "note": "W end solid, E portion dashed (inferred/concealed) on source; traced as one continuous mapped fault", "length_km": 170.8}}, {"type": "Feature", "geometry": {"type": "LineString", "coordinates": [[51.06682, 11.33975], [51.05945, 11.16758], [51.02493, 11.06415], [51.04018, 11.04699], [51.00831, 10.87472], [50.96314, 10.80565], [50.97302, 10.68521], [50.90749, 10.47834], [50.92064, 10.40955]]}, "properties": {"source": "abbate_1994_faults", "kind": "fault", "confidence": "buried_major", "source_scale": "1:1,500,000", "accuracy_km": "~2-4 (empirically re-validated against graticule + natural landmark; see integration report)", "source_full": "Abbate, Sagri & Sassi 1994 - Geological Map of Somalia 1:1,500,000 (UNDP/UNDTCD/SNU)", "method": "symbology-guided digitization; georeferenced via least-squares fit to printed map graticule (9 control points) with rotation correction, NOT via ORB image-coregistration (superseded, had 10-21km error)", "region": "Bari coast (Bargaal-Buq Atoti)", "note": "dashed line with downthrow barbs (Abbate legend: buried major fault)", "length_km": 107.8}}, {"type": "Feature", "geometry": {"type": "LineString", "coordinates": [[48.90003, 7.96994], [48.86201, 7.86648], [48.52498, 7.34856], [48.55212, 7.27982], [48.58302, 6.90126]]}, "properties": {"source": "abbate_1994_faults", "kind": "fault", "confidence": "buried_major", "source_scale": "1:1,500,000", "accuracy_km": "~2-4 (empirically re-validated against graticule + natural landmark; see integration report)", "source_full": "Abbate, Sagri & Sassi 1994 - Geological Map of Somalia 1:1,500,000 (UNDP/UNDTCD/SNU)", "method": "symbology-guided digitization; georeferenced via least-squares fit to printed map graticule (9 control points) with rotation correction, NOT via ORB image-coregistration (superseded, had 10-21km error)", "region": "Nogal (Nugaal)", "note": "dashed line with downthrow barbs (buried major fault); main Nogal/Nugaal-region fault through Laqlaajisle into Mudug (OMmb)", "length_km": 131.4}}, {"type": "Feature", "geometry": {"type": "LineString", "coordinates": [[48.78988, 7.06628], [48.89781, 6.92905], [48.91835, 6.77421]]}, "properties": {"source": "abbate_1994_faults", "kind": "fault", "confidence": "buried_major", "source_scale": "1:1,500,000", "accuracy_km": "~2-4 (empirically re-validated against graticule + natural landmark; see integration report)", "source_full": "Abbate, Sagri & Sassi 1994 - Geological Map of Somalia 1:1,500,000 (UNDP/UNDTCD/SNU)", "method": "symbology-guided digitization; georeferenced via least-squares fit to printed map graticule (9 control points) with rotation correction, NOT via ORB image-coregistration (superseded, had 10-21km error)", "region": "Nogal (Nugaal) - Jirriban splay", "note": "SE splay of Nogal fault system via Jirriban toward Garacad, dashed with barbs", "length_km": 36.8}}]}